[
    {
        "Altitude(m)": 561284.3084141667,
        "Argument of Periapsis(deg)": 0.026491964442854003,
        "Eccentricity": 0.0,
        "Inclination(deg)": 53.0,
        "Latitude(deg)": -26.83631262463422,
        "Longitude(deg)": 174.53411007908537,
        "Mean Anomaly(deg)": -34.17902852968972,
        "RAAN(deg)": 299.9605734741121,
        "Satellite Name": "Starlink Shell 1 1337",
        "Satellite Number": 1337,
        "Semi-Major Axis(m)": 6931778.249405717,
        "Time(s)": 760
    },
    {
        "Altitude(m)": 561112.0791702397,
        "Argument of Periapsis(deg)": 0.02684054292236524,
        "Eccentricity": 0.0,
        "Inclination(deg)": 53.0,
        "Latitude(deg)": -26.370865649989998,
        "Longitude(deg)": 174.96256198557728,
        "Mean Anomaly(deg)": -33.55219732613296,
        "RAAN(deg)": 299.9600547040346,
        "Satellite Name": "Starlink Shell 1 1337",
        "Satellite Number": 1337,
        "Semi-Major Axis(m)": 6931778.249405717,
        "Time(s)": 770
    },
    {
        "Altitude(m)": 560940.522903528,
        "Argument of Periapsis(deg)": 0.027189121401876473,
        "Eccentricity": 0.0,
        "Inclination(deg)": 53.0,
        "Latitude(deg)": -25.90384575876889,
        "Longitude(deg)": 175.3872765854207,
        "Mean Anomaly(deg)": -32.92536612257622,
        "RAAN(deg)": 299.95953593395717,
        "Satellite Name": "Starlink Shell 1 1337",
        "Satellite Number": 1337,
        "Semi-Major Axis(m)": 6931778.249405717,
        "Time(s)": 780
    },
    {
        "Altitude(m)": 560769.702340107,
        "Argument of Periapsis(deg)": 0.02753769988138771,
        "Eccentricity": 0.0,
        "Inclination(deg)": 53.0,
        "Latitude(deg)": -25.435295881162258,
        "Longitude(deg)": 175.80834765890464,
        "Mean Anomaly(deg)": -32.298534919019524,
        "RAAN(deg)": 299.95901716387965,
        "Satellite Name": "Starlink Shell 1 1337",
        "Satellite Number": 1337,
        "Semi-Major Axis(m)": 6931778.249405717,
        "Time(s)": 790
    },
    {
        "Altitude(m)": 560599.679730162,
        "Argument of Periapsis(deg)": 0.02788627836089895,
        "Eccentricity": 0.0,
        "Inclination(deg)": 53.0,
        "Latitude(deg)": -24.965258059366228,
        "Longitude(deg)": 176.22586720864714,
        "Mean Anomaly(deg)": -31.67170371546278,
        "RAAN(deg)": 299.9584983938022,
        "Satellite Name": "Starlink Shell 1 1337",
        "Satellite Number": 1337,
        "Semi-Major Axis(m)": 6931778.249405717,
        "Time(s)": 800
    },
    {
        "Altitude(m)": 560430.5168200965,
        "Argument of Periapsis(deg)": 0.02823485684041019,
        "Eccentricity": 0.0,
        "Inclination(deg)": 53.0,
        "Latitude(deg)": -24.493773474604843,
        "Longitude(deg)": 176.63992597571547,
        "Mean Anomaly(deg)": -31.044872511906032,
        "RAAN(deg)": 299.9579796237247,
        "Satellite Name": "Starlink Shell 1 1337",
        "Satellite Number": 1337,
        "Semi-Major Axis(m)": 6931778.249405717,
        "Time(s)": 810
    },
    {
        "Altitude(m)": 560262.2748248362,
        "Argument of Periapsis(deg)": 0.028583435319921423,
        "Eccentricity": 0.0,
        "Inclination(deg)": 53.0,
        "Latitude(deg)": -24.020882473637297,
        "Longitude(deg)": 177.0506139574862,
        "Mean Anomaly(deg)": -30.41804130834939,
        "RAAN(deg)": 299.95746085364726,
        "Satellite Name": "Starlink Shell 1 1337",
        "Satellite Number": 1337,
        "Semi-Major Axis(m)": 6931778.249405717,
        "Time(s)": 820
    },
    {
        "Altitude(m)": 560095.0144003972,
        "Argument of Periapsis(deg)": 0.028932013799432665,
        "Eccentricity": 0.0,
        "Inclination(deg)": 53.0,
        "Latitude(deg)": -23.54662459474473,
        "Longitude(deg)": 177.45801941421527,
        "Mean Anomaly(deg)": -29.791210104792693,
        "RAAN(deg)": 299.95694208356974,
        "Satellite Name": "Starlink Shell 1 1337",
        "Satellite Number": 1337,
        "Semi-Major Axis(m)": 6931778.249405717,
        "Time(s)": 830
    },
    {
        "Altitude(m)": 559928.7956167208,
        "Argument of Periapsis(deg)": 0.029280592278943897,
        "Eccentricity": 0.0,
        "Inclination(deg)": 53.0,
        "Latitude(deg)": -23.071038593200576,
        "Longitude(deg)": 177.86222938991412,
        "Mean Anomaly(deg)": -29.164378901235946,
        "RAAN(deg)": 299.9564233134923,
        "Satellite Name": "Starlink Shell 1 1337",
        "Satellite Number": 1337,
        "Semi-Major Axis(m)": 6931778.249405717,
        "Time(s)": 840
    },
    {
        "Altitude(m)": 559763.677930771,
        "Argument of Periapsis(deg)": 0.029629170758455132,
        "Eccentricity": 0.0,
        "Inclination(deg)": 53.0,
        "Latitude(deg)": -22.59416246622212,
        "Longitude(deg)": 178.26333023452273,
        "Mean Anomaly(deg)": -28.5375476976792,
        "RAAN(deg)": 299.9559045434148,
        "Satellite Name": "Starlink Shell 1 1337",
        "Satellite Number": 1337,
        "Semi-Major Axis(m)": 6931778.249405717,
        "Time(s)": 850
    },
    {
        "Altitude(m)": 559599.7201599013,
        "Argument of Periapsis(deg)": 0.02997774923796637,
        "Eccentricity": 0.0,
        "Inclination(deg)": 53.0,
        "Latitude(deg)": -22.11603347740264,
        "Longitude(deg)": 178.66140644628246,
        "Mean Anomaly(deg)": -27.910716494122504,
        "RAAN(deg)": 299.9553857733373,
        "Satellite Name": "Starlink Shell 1 1337",
        "Satellite Number": 1337,
        "Semi-Major Axis(m)": 6931778.249405717,
        "Time(s)": 860
    },
    {
        "Altitude(m)": 559436.9804555885,
        "Argument of Periapsis(deg)": 0.030326327717477602,
        "Eccentricity": 0.0,
        "Inclination(deg)": 53.0,
        "Latitude(deg)": -21.636688180634568,
        "Longitude(deg)": 179.05654203661533,
        "Mean Anomaly(deg)": -27.28388529056581,
        "RAAN(deg)": 299.9548670032599,
        "Satellite Name": "Starlink Shell 1 1337",
        "Satellite Number": 1337,
        "Semi-Major Axis(m)": 6931778.249405717,
        "Time(s)": 870
    },
    {
        "Altitude(m)": 559275.5162773809,
        "Argument of Periapsis(deg)": 0.030674906196988847,
        "Eccentricity": 0.0,
        "Inclination(deg)": 53.0,
        "Latitude(deg)": -21.156162443520312,
        "Longitude(deg)": 179.44881937448932,
        "Mean Anomaly(deg)": -26.657054087009012,
        "RAAN(deg)": 299.95434823318243,
        "Satellite Name": "Starlink Shell 1 1337",
        "Satellite Number": 1337,
        "Semi-Major Axis(m)": 6931778.249405717,
        "Time(s)": 880
    },
    {
        "Altitude(m)": 559115.384367266,
        "Argument of Periapsis(deg)": 0.031023484676500086,
        "Eccentricity": 0.0,
        "Inclination(deg)": 53.0,
        "Latitude(deg)": -20.6744914702831,
        "Longitude(deg)": 179.8383197125956,
        "Mean Anomaly(deg)": -26.030222883452314,
        "RAAN(deg)": 299.9538294631049,
        "Satellite Name": "Starlink Shell 1 1337",
        "Satellite Number": 1337,
        "Semi-Major Axis(m)": 6931778.249405717,
        "Time(s)": 890
    },
    {
        "Altitude(m)": 558956.6407243406,
        "Argument of Periapsis(deg)": 0.03137206315601132,
        "Eccentricity": 0.0,
        "Inclination(deg)": 53.0,
        "Latitude(deg)": -20.19170982418162,
        "Longitude(deg)": -179.77487628572618,
        "Mean Anomaly(deg)": -25.40339167989572,
        "RAAN(deg)": 299.9533106930275,
        "Satellite Name": "Starlink Shell 1 1337",
        "Satellite Number": 1337,
        "Semi-Major Axis(m)": 6931778.249405717,
        "Time(s)": 900
    },
    {
        "Altitude(m)": 558799.3405798149,
        "Argument of Periapsis(deg)": 0.03172064163552255,
        "Eccentricity": 0.0,
        "Inclination(deg)": 53.0,
        "Latitude(deg)": -19.707851449433637,
        "Longitude(deg)": -179.39068953177468,
        "Mean Anomaly(deg)": -24.776560476338922,
        "RAAN(deg)": 299.95279192295,
        "Satellite Name": "Starlink Shell 1 1337",
        "Satellite Number": 1337,
        "Semi-Major Axis(m)": 6931778.249405717,
        "Time(s)": 910
    },
    {
        "Altitude(m)": 558643.5383724254,
        "Argument of Periapsis(deg)": 0.0320692201150338,
        "Eccentricity": 0.0,
        "Inclination(deg)": 53.0,
        "Latitude(deg)": -19.22294969266279,
        "Longitude(deg)": -179.00904198331725,
        "Mean Anomaly(deg)": -24.149729272782174,
        "RAAN(deg)": 299.9522731528725,
        "Satellite Name": "Starlink Shell 1 1337",
        "Satellite Number": 1337,
        "Semi-Major Axis(m)": 6931778.249405717,
        "Time(s)": 920
    },
    {
        "Altitude(m)": 558489.2877242002,
        "Argument of Periapsis(deg)": 0.032417798594545036,
        "Eccentricity": 0.0,
        "Inclination(deg)": 53.0,
        "Latitude(deg)": -18.737037323873494,
        "Longitude(deg)": -178.62985611590986,
        "Mean Anomaly(deg)": -23.52289806922553,
        "RAAN(deg)": 299.95175438279506,
        "Satellite Name": "Starlink Shell 1 1337",
        "Satellite Number": 1337,
        "Semi-Major Axis(m)": 6931778.249405717,
        "Time(s)": 930
    },
    {
        "Altitude(m)": 558336.6414166247,
        "Argument of Periapsis(deg)": 0.03276637707405627,
        "Eccentricity": 0.0,
        "Inclination(deg)": 53.0,
        "Latitude(deg)": -18.250146556961564,
        "Longitude(deg)": -178.25305590664652,
        "Mean Anomaly(deg)": -22.89606686566884,
        "RAAN(deg)": 299.95123561271754,
        "Satellite Name": "Starlink Shell 1 1337",
        "Satellite Number": 1337,
        "Semi-Major Axis(m)": 6931778.249405717,
        "Time(s)": 940
    }
]